[
    {
        "area_name": "台北市中正區",
        "area_code": 6001001001,
        "city": "台北市",
        "district": "中正區"
    },
    {
        "area_name": "台北市大同區",
        "area_code": 6001001002,
        "city": "台北市",
        "district": "大同區"
    },
    {
        "area_name": "台北市中山區",
        "area_code": 6001001003,
        "city": "台北市",
        "district": "中山區"
    },
    {
        "area_name": "台北市松山區",
        "area_code": 6001001004,
        "city": "台北市",
        "district": "松山區"
    },
    {
        "area_name": "台北市大安區",
        "area_code": 6001001005,
        "city": "台北市",
        "district": "大安區"
    },
    {
        "area_name": "台北市萬華區",
        "area_code": 6001001006,
        "city": "台北市",
        "district": "萬華區"
    },
    {
        "area_name": "台北市信義區",
        "area_code": 6001001007,
        "city": "台北市",
        "district": "信義區"
    },
    {
        "area_name": "台北市士林區",
        "area_code": 6001001008,
        "city": "台北市",
        "district": "士林區"
    },
    {
        "area_name": "台北市北投區",
        "area_code": 6001001009,
        "city": "台北市",
        "district": "北投區"
    },
    {
        "area_name": "台北市內湖區",
        "area_code": 6001001010,
        "city": "台北市",
        "district": "內湖區"
    },
    {
        "area_name": "台北市南港區",
        "area_code": 6001001011,
        "city": "台北市",
        "district": "南港區"
    },
    {
        "area_name": "台北市文山區",
        "area_code": 6001001012,
        "city": "台北市",
        "district": "文山區"
    },
    {
        "area_name": "新北市萬里區",
        "area_code": 6001002001,
        "city": "新北市",
        "district": "萬里區"
    },
    {
        "area_name": "新北市金山區",
        "area_code": 6001002002,
        "city": "新北市",
        "district": "金山區"
    },
    {
        "area_name": "新北市板橋區",
        "area_code": 6001002003,
        "city": "新北市",
        "district": "板橋區"
    },
    {
        "area_name": "新北市汐止區",
        "area_code": 6001002004,
        "city": "新北市",
        "district": "汐止區"
    },
    {
        "area_name": "新北市深坑區",
        "area_code": 6001002005,
        "city": "新北市",
        "district": "深坑區"
    },
    {
        "area_name": "新北市石碇區",
        "area_code": 6001002006,
        "city": "新北市",
        "district": "石碇區"
    },
    {
        "area_name": "新北市瑞芳區",
        "area_code": 6001002007,
        "city": "新北市",
        "district": "瑞芳區"
    },
    {
        "area_name": "新北市平溪區",
        "area_code": 6001002008,
        "city": "新北市",
        "district": "平溪區"
    },
    {
        "area_name": "新北市雙溪區",
        "area_code": 6001002009,
        "city": "新北市",
        "district": "雙溪區"
    },
    {
        "area_name": "新北市貢寮區",
        "area_code": 6001002010,
        "city": "新北市",
        "district": "貢寮區"
    },
    {
        "area_name": "新北市新店區",
        "area_code": 6001002011,
        "city": "新北市",
        "district": "新店區"
    },
    {
        "area_name": "新北市坪林區",
        "area_code": 6001002012,
        "city": "新北市",
        "district": "坪林區"
    },
    {
        "area_name": "新北市烏來區",
        "area_code": 6001002013,
        "city": "新北市",
        "district": "烏來區"
    },
    {
        "area_name": "新北市永和區",
        "area_code": 6001002014,
        "city": "新北市",
        "district": "永和區"
    },
    {
        "area_name": "新北市中和區",
        "area_code": 6001002015,
        "city": "新北市",
        "district": "中和區"
    },
    {
        "area_name": "新北市土城區",
        "area_code": 6001002016,
        "city": "新北市",
        "district": "土城區"
    },
    {
        "area_name": "新北市三峽區",
        "area_code": 6001002017,
        "city": "新北市",
        "district": "三峽區"
    },
    {
        "area_name": "新北市樹林區",
        "area_code": 6001002018,
        "city": "新北市",
        "district": "樹林區"
    },
    {
        "area_name": "新北市鶯歌區",
        "area_code": 6001002019,
        "city": "新北市",
        "district": "鶯歌區"
    },
    {
        "area_name": "新北市三重區",
        "area_code": 6001002020,
        "city": "新北市",
        "district": "三重區"
    },
    {
        "area_name": "新北市新莊區",
        "area_code": 6001002021,
        "city": "新北市",
        "district": "新莊區"
    },
    {
        "area_name": "新北市泰山區",
        "area_code": 6001002022,
        "city": "新北市",
        "district": "泰山區"
    },
    {
        "area_name": "新北市林口區",
        "area_code": 6001002023,
        "city": "新北市",
        "district": "林口區"
    },
    {
        "area_name": "新北市蘆洲區",
        "area_code": 6001002024,
        "city": "新北市",
        "district": "蘆洲區"
    },
    {
        "area_name": "新北市五股區",
        "area_code": 6001002025,
        "city": "新北市",
        "district": "五股區"
    },
    {
        "area_name": "新北市八里區",
        "area_code": 6001002026,
        "city": "新北市",
        "district": "八里區"
    },
    {
        "area_name": "新北市淡水區",
        "area_code": 6001002027,
        "city": "新北市",
        "district": "淡水區"
    },
    {
        "area_name": "新北市三芝區",
        "area_code": 6001002028,
        "city": "新北市",
        "district": "三芝區"
    },
    {
        "area_name": "新北市石門區",
        "area_code": 6001002029,
        "city": "新北市",
        "district": "石門區"
    },
    {
        "area_name": "宜蘭縣宜蘭市",
        "area_code": 6001003001,
        "city": "宜蘭縣",
        "district": "宜蘭市"
    },
    {
        "area_name": "宜蘭縣頭城鎮",
        "area_code": 6001003002,
        "city": "宜蘭縣",
        "district": "頭城鎮"
    },
    {
        "area_name": "宜蘭縣礁溪鄉",
        "area_code": 6001003003,
        "city": "宜蘭縣",
        "district": "礁溪鄉"
    },
    {
        "area_name": "宜蘭縣壯圍鄉",
        "area_code": 6001003004,
        "city": "宜蘭縣",
        "district": "壯圍鄉"
    },
    {
        "area_name": "宜蘭縣員山鄉",
        "area_code": 6001003005,
        "city": "宜蘭縣",
        "district": "員山鄉"
    },
    {
        "area_name": "宜蘭縣羅東鎮",
        "area_code": 6001003006,
        "city": "宜蘭縣",
        "district": "羅東鎮"
    },
    {
        "area_name": "宜蘭縣三星鄉",
        "area_code": 6001003007,
        "city": "宜蘭縣",
        "district": "三星鄉"
    },
    {
        "area_name": "宜蘭縣大同鄉",
        "area_code": 6001003008,
        "city": "宜蘭縣",
        "district": "大同鄉"
    },
    {
        "area_name": "宜蘭縣五結鄉",
        "area_code": 6001003009,
        "city": "宜蘭縣",
        "district": "五結鄉"
    },
    {
        "area_name": "宜蘭縣冬山鄉",
        "area_code": 6001003010,
        "city": "宜蘭縣",
        "district": "冬山鄉"
    },
    {
        "area_name": "宜蘭縣蘇澳鎮",
        "area_code": 6001003011,
        "city": "宜蘭縣",
        "district": "蘇澳鎮"
    },
    {
        "area_name": "宜蘭縣南澳鄉",
        "area_code": 6001003012,
        "city": "宜蘭縣",
        "district": "南澳鄉"
    },
    {
        "area_name": "基隆市仁愛區",
        "area_code": 6001004001,
        "city": "基隆市",
        "district": "仁愛區"
    },
    {
        "area_name": "基隆市信義區",
        "area_code": 6001004002,
        "city": "基隆市",
        "district": "信義區"
    },
    {
        "area_name": "基隆市中正區",
        "area_code": 6001004003,
        "city": "基隆市",
        "district": "中正區"
    },
    {
        "area_name": "基隆市中山區",
        "area_code": 6001004004,
        "city": "基隆市",
        "district": "中山區"
    },
    {
        "area_name": "基隆市安樂區",
        "area_code": 6001004005,
        "city": "基隆市",
        "district": "安樂區"
    },
    {
        "area_name": "基隆市暖暖區",
        "area_code": 6001004006,
        "city": "基隆市",
        "district": "暖暖區"
    },
    {
        "area_name": "基隆市七堵區",
        "area_code": 6001004007,
        "city": "基隆市",
        "district": "七堵區"
    },
    {
        "area_name": "桃園市中壢區",
        "area_code": 6001005001,
        "city": "桃園市",
        "district": "中壢區"
    },
    {
        "area_name": "桃園市平鎮區",
        "area_code": 6001005002,
        "city": "桃園市",
        "district": "平鎮"
    },
    {
        "area_name": "桃園市龍潭區",
        "area_code": 6001005003,
        "city": "桃園市",
        "district": "龍潭區"
    },
    {
        "area_name": "桃園市楊梅區",
        "area_code": 6001005004,
        "city": "桃園市",
        "district": "楊梅區"
    },
    {
        "area_name": "桃園市新屋區",
        "area_code": 6001005005,
        "city": "桃園市",
        "district": "新屋區"
    },
    {
        "area_name": "桃園市觀音區",
        "area_code": 6001005006,
        "city": "桃園市",
        "district": "觀音區"
    },
    {
        "area_name": "桃園市桃園區",
        "area_code": 6001005007,
        "city": "桃園市",
        "district": "桃園區"
    },
    {
        "area_name": "桃園市龜山區",
        "area_code": 6001005008,
        "city": "桃園市",
        "district": "龜山區"
    },
    {
        "area_name": "桃園市八德區",
        "area_code": 6001005009,
        "city": "桃園市",
        "district": "八德區"
    },
    {
        "area_name": "桃園市大溪區",
        "area_code": 6001005010,
        "city": "桃園市",
        "district": "大溪區"
    },
    {
        "area_name": "桃園市復興區",
        "area_code": 6001005011,
        "city": "桃園市",
        "district": "復興區"
    },
    {
        "area_name": "桃園市大園區",
        "area_code": 6001005012,
        "city": "桃園市",
        "district": "大園區"
    },
    {
        "area_name": "桃園市蘆竹區",
        "area_code": 6001005013,
        "city": "桃園市",
        "district": "蘆竹區"
    },
    {
        "area_name": "新竹市",
        "area_code": 6001006001,
        "city": "新竹市",
        "district": ""
    },
    {
        "area_name": "新竹縣竹北市",
        "area_code": 6001006002,
        "city": "新竹縣",
        "district": "竹北市"
    },
    {
        "area_name": "新竹縣湖口鄉",
        "area_code": 6001006003,
        "city": "新竹縣",
        "district": "湖口鄉"
    },
    {
        "area_name": "新竹縣新豐鄉",
        "area_code": 6001006004,
        "city": "新竹縣",
        "district": "新豐鄉"
    },
    {
        "area_name": "新竹縣新埔鎮",
        "area_code": 6001006005,
        "city": "新竹縣",
        "district": "新埔鎮"
    },
    {
        "area_name": "新竹縣關西鎮",
        "area_code": 6001006006,
        "city": "新竹縣",
        "district": "關西鎮"
    },
    {
        "area_name": "新竹縣芎林鄉",
        "area_code": 6001006007,
        "city": "新竹縣",
        "district": "芎林鄉"
    },
    {
        "area_name": "新竹縣寶山鄉",
        "area_code": 6001006008,
        "city": "新竹縣",
        "district": "寶山鄉"
    },
    {
        "area_name": "新竹縣竹東鎮",
        "area_code": 6001006009,
        "city": "新竹縣",
        "district": "竹東鎮"
    },
    {
        "area_name": "新竹縣五峰鄉",
        "area_code": 6001006010,
        "city": "新竹縣",
        "district": "五峰鄉"
    },
    {
        "area_name": "新竹縣橫山鄉",
        "area_code": 6001006011,
        "city": "新竹縣",
        "district": "橫山鄉"
    },
    {
        "area_name": "新竹縣尖石鄉",
        "area_code": 6001006012,
        "city": "新竹縣",
        "district": "尖石鄉"
    },
    {
        "area_name": "新竹縣北埔鄉",
        "area_code": 6001006013,
        "city": "新竹縣",
        "district": "北埔鄉"
    },
    {
        "area_name": "新竹縣峨眉鄉",
        "area_code": 6001006014,
        "city": "新竹縣",
        "district": "峨眉鄉"
    },
    {
        "area_name": "苗栗縣竹南鎮",
        "area_code": 6001007001,
        "city": "苗栗縣",
        "district": "竹南鎮"
    },
    {
        "area_name": "苗栗縣頭份市",
        "area_code": 6001007002,
        "city": "苗栗縣",
        "district": "頭份市"
    },
    {
        "area_name": "苗栗縣三灣鄉",
        "area_code": 6001007003,
        "city": "苗栗縣",
        "district": "三灣鄉"
    },
    {
        "area_name": "苗栗縣南庄鄉",
        "area_code": 6001007004,
        "city": "苗栗縣",
        "district": "南庄鄉"
    },
    {
        "area_name": "苗栗縣獅潭鄉",
        "area_code": 6001007005,
        "city": "苗栗縣",
        "district": "獅潭鄉"
    },
    {
        "area_name": "苗栗縣後龍鎮",
        "area_code": 6001007006,
        "city": "苗栗縣",
        "district": "後龍鎮"
    },
    {
        "area_name": "苗栗縣通霄鎮",
        "area_code": 6001007007,
        "city": "苗栗縣",
        "district": "通霄鎮"
    },
    {
        "area_name": "苗栗縣苑裡鎮",
        "area_code": 6001007008,
        "city": "苗栗縣",
        "district": "苑裡鎮"
    },
    {
        "area_name": "苗栗縣苗栗市",
        "area_code": 6001007009,
        "city": "苗栗縣",
        "district": "苗栗市"
    },
    {
        "area_name": "苗栗縣造橋鄉",
        "area_code": 6001007010,
        "city": "苗栗縣",
        "district": "造橋鄉"
    },
    {
        "area_name": "苗栗縣頭屋鄉",
        "area_code": 6001007011,
        "city": "苗栗縣",
        "district": "頭屋鄉"
    },
    {
        "area_name": "苗栗縣公館鄉",
        "area_code": 6001007012,
        "city": "苗栗縣",
        "district": "公館鄉"
    },
    {
        "area_name": "苗栗縣大湖鄉",
        "area_code": 6001007013,
        "city": "苗栗縣",
        "district": "大湖鄉"
    },
    {
        "area_name": "苗栗縣泰安鄉",
        "area_code": 6001007014,
        "city": "苗栗縣",
        "district": "泰安鄉"
    },
    {
        "area_name": "苗栗縣銅鑼鄉",
        "area_code": 6001007015,
        "city": "苗栗縣",
        "district": "銅鑼鄉"
    },
    {
        "area_name": "苗栗縣三義鄉",
        "area_code": 6001007016,
        "city": "苗栗縣",
        "district": "三義鄉"
    },
    {
        "area_name": "苗栗縣西湖鄉",
        "area_code": 6001007017,
        "city": "苗栗縣",
        "district": "西湖鄉"
    },
    {
        "area_name": "苗栗縣卓蘭鎮",
        "area_code": 6001007018,
        "city": "苗栗縣",
        "district": "卓蘭鎮"
    },
    {
        "area_name": "台中市中區",
        "area_code": 6001008001,
        "city": "台中市",
        "district": "中區"
    },
    {
        "area_name": "台中市東區",
        "area_code": 6001008002,
        "city": "台中市",
        "district": "東區"
    },
    {
        "area_name": "台中市南區",
        "area_code": 6001008003,
        "city": "台中市",
        "district": "南區"
    },
    {
        "area_name": "台中市西區",
        "area_code": 6001008004,
        "city": "台中市",
        "district": "西區"
    },
    {
        "area_name": "台中市北區",
        "area_code": 6001008005,
        "city": "台中市",
        "district": "北區"
    },
    {
        "area_name": "台中市北屯區",
        "area_code": 6001008006,
        "city": "台中市",
        "district": "北屯區"
    },
    {
        "area_name": "台中市西屯區",
        "area_code": 6001008007,
        "city": "台中市",
        "district": "西屯區"
    },
    {
        "area_name": "台中市南屯區",
        "area_code": 6001008008,
        "city": "台中市",
        "district": "南屯區"
    },
    {
        "area_name": "台中市太平區",
        "area_code": 6001008009,
        "city": "台中市",
        "district": "太平區"
    },
    {
        "area_name": "台中市大里區",
        "area_code": 6001008010,
        "city": "台中市",
        "district": "大里區"
    },
    {
        "area_name": "台中市霧峰區",
        "area_code": 6001008011,
        "city": "台中市",
        "district": "霧峰區"
    },
    {
        "area_name": "台中市烏日區",
        "area_code": 6001008012,
        "city": "台中市",
        "district": "烏日區"
    },
    {
        "area_name": "台中市豐原區",
        "area_code": 6001008013,
        "city": "台中市",
        "district": "豐原區"
    },
    {
        "area_name": "台中市后里區",
        "area_code": 6001008014,
        "city": "台中市",
        "district": "后里區"
    },
    {
        "area_name": "台中市石岡區",
        "area_code": 6001008015,
        "city": "台中市",
        "district": "石岡區"
    },
    {
        "area_name": "台中市東勢區",
        "area_code": 6001008016,
        "city": "台中市",
        "district": "東勢區"
    },
    {
        "area_name": "台中市和平區",
        "area_code": 6001008017,
        "city": "台中市",
        "district": "和平區"
    },
    {
        "area_name": "台中市新社區",
        "area_code": 6001008018,
        "city": "台中市",
        "district": "新社區"
    },
    {
        "area_name": "台中市潭子區",
        "area_code": 6001008019,
        "city": "台中市",
        "district": "潭子區"
    },
    {
        "area_name": "台中市大雅區",
        "area_code": 6001008020,
        "city": "台中市",
        "district": "大雅區"
    },
    {
        "area_name": "台中市神岡區",
        "area_code": 6001008021,
        "city": "台中市",
        "district": "神岡區"
    },
    {
        "area_name": "台中市大肚區",
        "area_code": 6001008022,
        "city": "台中市",
        "district": "大肚區"
    },
    {
        "area_name": "台中市沙鹿區",
        "area_code": 6001008023,
        "city": "台中市",
        "district": "沙鹿區"
    },
    {
        "area_name": "台中市龍井區",
        "area_code": 6001008024,
        "city": "台中市",
        "district": "龍井區"
    },
    {
        "area_name": "台中市梧棲區",
        "area_code": 6001008025,
        "city": "台中市",
        "district": "梧棲區"
    },
    {
        "area_name": "台中市清水區",
        "area_code": 6001008026,
        "city": "台中市",
        "district": "清水區"
    },
    {
        "area_name": "台中市大甲區",
        "area_code": 6001008027,
        "city": "台中市",
        "district": "大甲區"
    },
    {
        "area_name": "台中市外埔區",
        "area_code": 6001008028,
        "city": "台中市",
        "district": "外埔區"
    },
    {
        "area_name": "台中市大安區",
        "area_code": 6001008029,
        "city": "台中市",
        "district": "大安區"
    },
    {
        "area_name": "彰化縣彰化市",
        "area_code": 6001010001,
        "city": "彰化縣",
        "district": "彰化市"
    },
    {
        "area_name": "彰化縣芬園鄉",
        "area_code": 6001010002,
        "city": "彰化縣",
        "district": "芬園鄉"
    },
    {
        "area_name": "彰化縣花壇鄉",
        "area_code": 6001010003,
        "city": "彰化縣",
        "district": "花壇鄉"
    },
    {
        "area_name": "彰化縣秀水鄉",
        "area_code": 6001010004,
        "city": "彰化縣",
        "district": "秀水鄉"
    },
    {
        "area_name": "彰化縣鹿港鎮",
        "area_code": 6001010005,
        "city": "彰化縣",
        "district": "鹿港鎮"
    },
    {
        "area_name": "彰化縣福興鄉",
        "area_code": 6001010006,
        "city": "彰化縣",
        "district": "福興鄉"
    },
    {
        "area_name": "彰化縣線西鄉",
        "area_code": 6001010007,
        "city": "彰化縣",
        "district": "線西鄉"
    },
    {
        "area_name": "彰化縣和美鎮",
        "area_code": 6001010008,
        "city": "彰化縣",
        "district": "和美鎮"
    },
    {
        "area_name": "彰化縣伸港鄉",
        "area_code": 6001010009,
        "city": "彰化縣",
        "district": "伸港鄉"
    },
    {
        "area_name": "彰化縣員林市",
        "area_code": 6001010010,
        "city": "彰化縣",
        "district": "員林市"
    },
    {
        "area_name": "彰化縣社頭鄉",
        "area_code": 6001010011,
        "city": "彰化縣",
        "district": "社頭鄉"
    },
    {
        "area_name": "彰化縣永靖鄉",
        "area_code": 6001010012,
        "city": "彰化縣",
        "district": "永靖鄉"
    },
    {
        "area_name": "彰化縣埔心鄉",
        "area_code": 6001010013,
        "city": "彰化縣",
        "district": "埔心鄉"
    },
    {
        "area_name": "彰化縣溪湖鎮",
        "area_code": 6001010014,
        "city": "彰化縣",
        "district": "溪湖鎮"
    },
    {
        "area_name": "彰化縣大村鄉",
        "area_code": 6001010015,
        "city": "彰化縣",
        "district": "大村鄉"
    },
    {
        "area_name": "彰化縣埔鹽鄉",
        "area_code": 6001010016,
        "city": "彰化縣",
        "district": "埔鹽鄉"
    },
    {
        "area_name": "彰化縣田中鎮",
        "area_code": 6001010017,
        "city": "彰化縣",
        "district": "田中鎮"
    },
    {
        "area_name": "彰化縣北斗鎮",
        "area_code": 6001010018,
        "city": "彰化縣",
        "district": "北斗鎮"
    },
    {
        "area_name": "彰化縣田尾鄉",
        "area_code": 6001010019,
        "city": "彰化縣",
        "district": "田尾鄉"
    },
    {
        "area_name": "彰化縣埤頭鄉",
        "area_code": 6001010020,
        "city": "彰化縣",
        "district": "埤頭鄉"
    },
    {
        "area_name": "彰化縣溪州鄉",
        "area_code": 6001010021,
        "city": "彰化縣",
        "district": "溪州鄉"
    },
    {
        "area_name": "彰化縣竹塘鄉",
        "area_code": 6001010022,
        "city": "彰化縣",
        "district": "竹塘鄉"
    },
    {
        "area_name": "彰化縣二林鎮",
        "area_code": 6001010023,
        "city": "彰化縣",
        "district": "二林鎮"
    },
    {
        "area_name": "彰化縣大城鄉",
        "area_code": 6001010024,
        "city": "彰化縣",
        "district": "大城鄉"
    },
    {
        "area_name": "彰化縣芳苑鄉",
        "area_code": 6001010025,
        "city": "彰化縣",
        "district": "芳苑鄉"
    },
    {
        "area_name": "彰化縣二水鄉",
        "area_code": 6001010026,
        "city": "彰化縣",
        "district": "二水鄉"
    },
    {
        "area_name": "南投縣南投市",
        "area_code": 6001011001,
        "city": "南投縣",
        "district": "南投市"
    },
    {
        "area_name": "南投縣中寮鄉",
        "area_code": 6001011002,
        "city": "南投縣",
        "district": "中寮鄉"
    },
    {
        "area_name": "南投縣草屯鎮",
        "area_code": 6001011003,
        "city": "南投縣",
        "district": "草屯鎮"
    },
    {
        "area_name": "南投縣國姓鄉",
        "area_code": 6001011004,
        "city": "南投縣",
        "district": "國姓鄉"
    },
    {
        "area_name": "南投縣埔里鎮",
        "area_code": 6001011005,
        "city": "南投縣",
        "district": "埔里鎮"
    },
    {
        "area_name": "南投縣仁愛鄉",
        "area_code": 6001011006,
        "city": "南投縣",
        "district": "仁愛鄉"
    },
    {
        "area_name": "南投縣名間鄉",
        "area_code": 6001011007,
        "city": "南投縣",
        "district": "名間鄉"
    },
    {
        "area_name": "南投縣集集鎮",
        "area_code": 6001011008,
        "city": "南投縣",
        "district": "集集鎮"
    },
    {
        "area_name": "南投縣水里鄉",
        "area_code": 6001011009,
        "city": "南投縣",
        "district": "水里鄉"
    },
    {
        "area_name": "南投縣魚池鄉",
        "area_code": 6001011010,
        "city": "南投縣",
        "district": "魚池鄉"
    },
    {
        "area_name": "南投縣信義鄉",
        "area_code": 6001011011,
        "city": "南投縣",
        "district": "信義鄉"
    },
    {
        "area_name": "南投縣竹山鎮",
        "area_code": 6001011012,
        "city": "南投縣",
        "district": "竹山鎮"
    },
    {
        "area_name": "南投縣鹿谷鄉",
        "area_code": 6001011013,
        "city": "南投縣",
        "district": "鹿谷鄉"
    },
    {
        "area_name": "雲林縣斗南鎮",
        "area_code": 6001012001,
        "city": "雲林縣",
        "district": "斗南鎮"
    },
    {
        "area_name": "雲林縣大埤鄉",
        "area_code": 6001012002,
        "city": "雲林縣",
        "district": "大埤鄉"
    },
    {
        "area_name": "雲林縣虎尾鎮",
        "area_code": 6001012003,
        "city": "雲林縣",
        "district": "虎尾鎮"
    },
    {
        "area_name": "雲林縣土庫鎮",
        "area_code": 6001012004,
        "city": "雲林縣",
        "district": "土庫鎮"
    },
    {
        "area_name": "雲林縣褒忠鄉",
        "area_code": 6001012005,
        "city": "雲林縣",
        "district": "褒忠鄉"
    },
    {
        "area_name": "雲林縣東勢鄉",
        "area_code": 6001012006,
        "city": "雲林縣",
        "district": "東勢鄉"
    },
    {
        "area_name": "雲林縣台西鄉",
        "area_code": 6001012007,
        "city": "雲林縣",
        "district": "台西鄉"
    },
    {
        "area_name": "雲林縣崙背鄉",
        "area_code": 6001012008,
        "city": "雲林縣",
        "district": "崙背鄉"
    },
    {
        "area_name": "雲林縣麥寮鄉",
        "area_code": 6001012009,
        "city": "雲林縣",
        "district": "麥寮鄉"
    },
    {
        "area_name": "雲林縣斗六市",
        "area_code": 6001012010,
        "city": "雲林縣",
        "district": "斗六市"
    },
    {
        "area_name": "雲林縣林內鄉",
        "area_code": 6001012011,
        "city": "雲林縣",
        "district": "林內鄉"
    },
    {
        "area_name": "雲林縣古坑鄉",
        "area_code": 6001012012,
        "city": "雲林縣",
        "district": "古坑鄉"
    },
    {
        "area_name": "雲林縣莿桐鄉",
        "area_code": 6001012013,
        "city": "雲林縣",
        "district": "莿桐鄉"
    },
    {
        "area_name": "雲林縣西螺鎮",
        "area_code": 6001012014,
        "city": "雲林縣",
        "district": "西螺鎮"
    },
    {
        "area_name": "雲林縣二崙鄉",
        "area_code": 6001012015,
        "city": "雲林縣",
        "district": "二崙鄉"
    },
    {
        "area_name": "雲林縣北港鎮",
        "area_code": 6001012016,
        "city": "雲林縣",
        "district": "北港鎮"
    },
    {
        "area_name": "雲林縣水林鄉",
        "area_code": 6001012017,
        "city": "雲林縣",
        "district": "水林鄉"
    },
    {
        "area_name": "雲林縣口湖鄉",
        "area_code": 6001012018,
        "city": "雲林縣",
        "district": "口湖鄉"
    },
    {
        "area_name": "雲林縣四湖鄉",
        "area_code": 6001012019,
        "city": "雲林縣",
        "district": "四湖鄉"
    },
    {
        "area_name": "雲林縣元長鄉",
        "area_code": 6001012020,
        "city": "雲林縣",
        "district": "元長鄉"
    },
    {
        "area_name": "嘉義市",
        "area_code": 6001013001,
        "city": "嘉義市",
        "district": ""
    },
    {
        "area_name": "嘉義縣番路鄉",
        "area_code": 6001013002,
        "city": "嘉義縣",
        "district": "番路鄉"
    },
    {
        "area_name": "嘉義縣梅山鄉",
        "area_code": 6001013003,
        "city": "嘉義縣",
        "district": "梅山鄉"
    },
    {
        "area_name": "嘉義縣竹崎鄉",
        "area_code": 6001013004,
        "city": "嘉義縣",
        "district": "竹崎鄉"
    },
    {
        "area_name": "嘉義縣阿里山鄉",
        "area_code": 6001013005,
        "city": "嘉義縣",
        "district": "阿里山鄉"
    },
    {
        "area_name": "嘉義縣中埔鄉",
        "area_code": 6001013006,
        "city": "嘉義縣",
        "district": "中埔鄉"
    },
    {
        "area_name": "嘉義縣大埔鄉",
        "area_code": 6001013007,
        "city": "嘉義縣",
        "district": "大埔鄉"
    },
    {
        "area_name": "嘉義縣水上鄉",
        "area_code": 6001013008,
        "city": "嘉義縣",
        "district": "水上鄉"
    },
    {
        "area_name": "嘉義縣鹿草鄉",
        "area_code": 6001013009,
        "city": "嘉義縣",
        "district": "鹿草鄉"
    },
    {
        "area_name": "嘉義縣太保市",
        "area_code": 6001013010,
        "city": "嘉義縣",
        "district": "太保市"
    },
    {
        "area_name": "嘉義縣朴子市",
        "area_code": 6001013011,
        "city": "嘉義縣",
        "district": "朴子市"
    },
    {
        "area_name": "嘉義縣東石鄉",
        "area_code": 6001013012,
        "city": "嘉義縣",
        "district": "東石鄉"
    },
    {
        "area_name": "嘉義縣六腳鄉",
        "area_code": 6001013013,
        "city": "嘉義縣",
        "district": "六腳鄉"
    },
    {
        "area_name": "嘉義縣新港鄉",
        "area_code": 6001013014,
        "city": "嘉義縣",
        "district": "新港鄉"
    },
    {
        "area_name": "嘉義縣民雄鄉",
        "area_code": 6001013015,
        "city": "嘉義縣",
        "district": "民雄鄉"
    },
    {
        "area_name": "嘉義縣大林鎮",
        "area_code": 6001013016,
        "city": "嘉義縣",
        "district": "大林鎮"
    },
    {
        "area_name": "嘉義縣溪口鄉",
        "area_code": 6001013017,
        "city": "嘉義縣",
        "district": "溪口鄉"
    },
    {
        "area_name": "嘉義縣義竹鄉",
        "area_code": 6001013018,
        "city": "嘉義縣",
        "district": "義竹鄉"
    },
    {
        "area_name": "嘉義縣布袋鎮",
        "area_code": 6001013019,
        "city": "嘉義縣",
        "district": "布袋鎮"
    },
    {
        "area_name": "台南市中西區",
        "area_code": 6001014001,
        "city": "台南市",
        "district": "中西區"
    },
    {
        "area_name": "台南市東區",
        "area_code": 6001014002,
        "city": "台南市",
        "district": "東區"
    },
    {
        "area_name": "台南市南區",
        "area_code": 6001014003,
        "city": "台南市",
        "district": "南區"
    },
    {
        "area_name": "台南市北區",
        "area_code": 6001014004,
        "city": "台南市",
        "district": "北區"
    },
    {
        "area_name": "台南市安平區",
        "area_code": 6001014005,
        "city": "台南市",
        "district": "安平區"
    },
    {
        "area_name": "台南市安南區",
        "area_code": 6001014006,
        "city": "台南市",
        "district": "安南區"
    },
    {
        "area_name": "台南市永康區",
        "area_code": 6001014007,
        "city": "台南市",
        "district": "永康區"
    },
    {
        "area_name": "台南市歸仁區",
        "area_code": 6001014008,
        "city": "台南市",
        "district": "歸仁區"
    },
    {
        "area_name": "台南市新化區",
        "area_code": 6001014009,
        "city": "台南市",
        "district": "新化區"
    },
    {
        "area_name": "台南市左鎮區",
        "area_code": 6001014010,
        "city": "台南市",
        "district": "左鎮"
    },
    {
        "area_name": "台南市玉井區",
        "area_code": 6001014011,
        "city": "台南市",
        "district": "玉井區"
    },
    {
        "area_name": "台南市楠西區",
        "area_code": 6001014012,
        "city": "台南市",
        "district": "楠西區"
    },
    {
        "area_name": "台南市南化區",
        "area_code": 6001014013,
        "city": "台南市",
        "district": "南化區"
    },
    {
        "area_name": "台南市仁德區",
        "area_code": 6001014014,
        "city": "台南市",
        "district": "仁德區"
    },
    {
        "area_name": "台南市關廟區",
        "area_code": 6001014015,
        "city": "台南市",
        "district": "關廟區"
    },
    {
        "area_name": "台南市龍崎區",
        "area_code": 6001014016,
        "city": "台南市",
        "district": "龍崎區"
    },
    {
        "area_name": "台南市官田區",
        "area_code": 6001014017,
        "city": "台南市",
        "district": "官田區"
    },
    {
        "area_name": "台南市麻豆區",
        "area_code": 6001014018,
        "city": "台南市",
        "district": "麻豆區"
    },
    {
        "area_name": "台南市佳里區",
        "area_code": 6001014019,
        "city": "台南市",
        "district": "佳里區"
    },
    {
        "area_name": "台南市西港區",
        "area_code": 6001014020,
        "city": "台南市",
        "district": "西港區"
    },
    {
        "area_name": "台南市七股區",
        "area_code": 6001014021,
        "city": "台南市",
        "district": "七股區"
    },
    {
        "area_name": "台南市將軍區",
        "area_code": 6001014022,
        "city": "台南市",
        "district": "將軍區"
    },
    {
        "area_name": "台南市學甲區",
        "area_code": 6001014023,
        "city": "台南市",
        "district": "學甲區"
    },
    {
        "area_name": "台南市北門區",
        "area_code": 6001014024,
        "city": "台南市",
        "district": "北門區"
    },
    {
        "area_name": "台南市新營區",
        "area_code": 6001014025,
        "city": "台南市",
        "district": "新營區"
    },
    {
        "area_name": "台南市後壁區",
        "area_code": 6001014026,
        "city": "台南市",
        "district": "後壁區"
    },
    {
        "area_name": "台南市白河區",
        "area_code": 6001014027,
        "city": "台南市",
        "district": "白河區"
    },
    {
        "area_name": "台南市東山區",
        "area_code": 6001014028,
        "city": "台南市",
        "district": "東山區"
    },
    {
        "area_name": "台南市六甲區",
        "area_code": 6001014029,
        "city": "台南市",
        "district": "六甲區"
    },
    {
        "area_name": "台南市下營區",
        "area_code": 6001014030,
        "city": "台南市",
        "district": "下營區"
    },
    {
        "area_name": "台南市柳營區",
        "area_code": 6001014031,
        "city": "台南市",
        "district": "柳營區"
    },
    {
        "area_name": "台南市鹽水區",
        "area_code": 6001014032,
        "city": "台南市",
        "district": "鹽水區"
    },
    {
        "area_name": "台南市善化區",
        "area_code": 6001014033,
        "city": "台南市",
        "district": "善化區"
    },
    {
        "area_name": "台南市大內區",
        "area_code": 6001014034,
        "city": "台南市",
        "district": "大內區"
    },
    {
        "area_name": "台南市山上區",
        "area_code": 6001014035,
        "city": "台南市",
        "district": "山上區"
    },
    {
        "area_name": "台南市新市區",
        "area_code": 6001014036,
        "city": "台南市",
        "district": "新市"
    },
    {
        "area_name": "台南市安定區",
        "area_code": 6001014037,
        "city": "台南市",
        "district": "安定區"
    },
    {
        "area_name": "高雄市新興區",
        "area_code": 6001016001,
        "city": "高雄市",
        "district": "新興區"
    },
    {
        "area_name": "高雄市前金區",
        "area_code": 6001016002,
        "city": "高雄市",
        "district": "前金區"
    },
    {
        "area_name": "高雄市苓雅區",
        "area_code": 6001016003,
        "city": "高雄市",
        "district": "苓雅區"
    },
    {
        "area_name": "高雄市鹽埕區",
        "area_code": 6001016004,
        "city": "高雄市",
        "district": "鹽埕區"
    },
    {
        "area_name": "高雄市鼓山區",
        "area_code": 6001016005,
        "city": "高雄市",
        "district": "鼓山區"
    },
    {
        "area_name": "高雄市旗津區",
        "area_code": 6001016006,
        "city": "高雄市",
        "district": "旗津區"
    },
    {
        "area_name": "高雄市前鎮區",
        "area_code": 6001016007,
        "city": "高雄市",
        "district": "前鎮"
    },
    {
        "area_name": "高雄市三民區",
        "area_code": 6001016008,
        "city": "高雄市",
        "district": "三民區"
    },
    {
        "area_name": "高雄市楠梓區",
        "area_code": 6001016009,
        "city": "高雄市",
        "district": "楠梓區"
    },
    {
        "area_name": "高雄市小港區",
        "area_code": 6001016010,
        "city": "高雄市",
        "district": "小港區"
    },
    {
        "area_name": "高雄市左營區",
        "area_code": 6001016011,
        "city": "高雄市",
        "district": "左營區"
    },
    {
        "area_name": "高雄市仁武區",
        "area_code": 6001016012,
        "city": "高雄市",
        "district": "仁武區"
    },
    {
        "area_name": "高雄市大社區",
        "area_code": 6001016013,
        "city": "高雄市",
        "district": "大社區"
    },
    {
        "area_name": "高雄市岡山區",
        "area_code": 6001016014,
        "city": "高雄市",
        "district": "岡山區"
    },
    {
        "area_name": "高雄市路竹區",
        "area_code": 6001016015,
        "city": "高雄市",
        "district": "路竹區"
    },
    {
        "area_name": "高雄市阿蓮區",
        "area_code": 6001016016,
        "city": "高雄市",
        "district": "阿蓮區"
    },
    {
        "area_name": "高雄市田寮區",
        "area_code": 6001016017,
        "city": "高雄市",
        "district": "田寮區"
    },
    {
        "area_name": "高雄市燕巢區",
        "area_code": 6001016018,
        "city": "高雄市",
        "district": "燕巢區"
    },
    {
        "area_name": "高雄市橋頭區",
        "area_code": 6001016019,
        "city": "高雄市",
        "district": "橋頭區"
    },
    {
        "area_name": "高雄市梓官區",
        "area_code": 6001016020,
        "city": "高雄市",
        "district": "梓官區"
    },
    {
        "area_name": "高雄市彌陀區",
        "area_code": 6001016021,
        "city": "高雄市",
        "district": "彌陀區"
    },
    {
        "area_name": "高雄市永安區",
        "area_code": 6001016022,
        "city": "高雄市",
        "district": "永安區"
    },
    {
        "area_name": "高雄市湖內區",
        "area_code": 6001016023,
        "city": "高雄市",
        "district": "湖內區"
    },
    {
        "area_name": "高雄市鳳山區",
        "area_code": 6001016024,
        "city": "高雄市",
        "district": "鳳山區"
    },
    {
        "area_name": "高雄市大寮區",
        "area_code": 6001016025,
        "city": "高雄市",
        "district": "大寮區"
    },
    {
        "area_name": "高雄市林園區",
        "area_code": 6001016026,
        "city": "高雄市",
        "district": "林園區"
    },
    {
        "area_name": "高雄市鳥松區",
        "area_code": 6001016027,
        "city": "高雄市",
        "district": "鳥松區"
    },
    {
        "area_name": "高雄市大樹區",
        "area_code": 6001016028,
        "city": "高雄市",
        "district": "大樹區"
    },
    {
        "area_name": "高雄市旗山區",
        "area_code": 6001016029,
        "city": "高雄市",
        "district": "旗山區"
    },
    {
        "area_name": "高雄市美濃區",
        "area_code": 6001016030,
        "city": "高雄市",
        "district": "美濃區"
    },
    {
        "area_name": "高雄市六龜區",
        "area_code": 6001016031,
        "city": "高雄市",
        "district": "六龜區"
    },
    {
        "area_name": "高雄市內門區",
        "area_code": 6001016032,
        "city": "高雄市",
        "district": "內門區"
    },
    {
        "area_name": "高雄市杉林區",
        "area_code": 6001016033,
        "city": "高雄市",
        "district": "杉林區"
    },
    {
        "area_name": "高雄市甲仙區",
        "area_code": 6001016034,
        "city": "高雄市",
        "district": "甲仙區"
    },
    {
        "area_name": "高雄市桃源區",
        "area_code": 6001016035,
        "city": "高雄市",
        "district": "桃源區"
    },
    {
        "area_name": "高雄市那瑪夏區",
        "area_code": 6001016036,
        "city": "高雄市",
        "district": "那瑪夏區"
    },
    {
        "area_name": "高雄市茂林區",
        "area_code": 6001016037,
        "city": "高雄市",
        "district": "茂林區"
    },
    {
        "area_name": "高雄市茄萣區",
        "area_code": 6001016038,
        "city": "高雄市",
        "district": "茄萣區"
    },
    {
        "area_name": "屏東縣屏東市",
        "area_code": 6001018001,
        "city": "屏東縣",
        "district": "屏東市"
    },
    {
        "area_name": "屏東縣三地門鄉",
        "area_code": 6001018002,
        "city": "屏東縣",
        "district": "三地門鄉"
    },
    {
        "area_name": "屏東縣霧台鄉",
        "area_code": 6001018003,
        "city": "屏東縣",
        "district": "霧台鄉"
    },
    {
        "area_name": "屏東縣瑪家鄉",
        "area_code": 6001018004,
        "city": "屏東縣",
        "district": "瑪家鄉"
    },
    {
        "area_name": "屏東縣九如鄉",
        "area_code": 6001018005,
        "city": "屏東縣",
        "district": "九如鄉"
    },
    {
        "area_name": "屏東縣里港鄉",
        "area_code": 6001018006,
        "city": "屏東縣",
        "district": "里港鄉"
    },
    {
        "area_name": "屏東縣高樹鄉",
        "area_code": 6001018007,
        "city": "屏東縣",
        "district": "高樹鄉"
    },
    {
        "area_name": "屏東縣鹽埔鄉",
        "area_code": 6001018008,
        "city": "屏東縣",
        "district": "鹽埔鄉"
    },
    {
        "area_name": "屏東縣長治鄉",
        "area_code": 6001018009,
        "city": "屏東縣",
        "district": "長治鄉"
    },
    {
        "area_name": "屏東縣麟洛鄉",
        "area_code": 6001018010,
        "city": "屏東縣",
        "district": "麟洛鄉"
    },
    {
        "area_name": "屏東縣竹田鄉",
        "area_code": 6001018011,
        "city": "屏東縣",
        "district": "竹田鄉"
    },
    {
        "area_name": "屏東縣內埔鄉",
        "area_code": 6001018012,
        "city": "屏東縣",
        "district": "內埔鄉"
    },
    {
        "area_name": "屏東縣萬丹鄉",
        "area_code": 6001018013,
        "city": "屏東縣",
        "district": "萬丹鄉"
    },
    {
        "area_name": "屏東縣潮州鎮",
        "area_code": 6001018014,
        "city": "屏東縣",
        "district": "潮州鎮"
    },
    {
        "area_name": "屏東縣泰武鄉",
        "area_code": 6001018015,
        "city": "屏東縣",
        "district": "泰武鄉"
    },
    {
        "area_name": "屏東縣來義鄉",
        "area_code": 6001018016,
        "city": "屏東縣",
        "district": "來義鄉"
    },
    {
        "area_name": "屏東縣萬巒鄉",
        "area_code": 6001018017,
        "city": "屏東縣",
        "district": "萬巒鄉"
    },
    {
        "area_name": "屏東縣崁頂鄉",
        "area_code": 6001018018,
        "city": "屏東縣",
        "district": "崁頂鄉"
    },
    {
        "area_name": "屏東縣新埤鄉",
        "area_code": 6001018019,
        "city": "屏東縣",
        "district": "新埤鄉"
    },
    {
        "area_name": "屏東縣南州鄉",
        "area_code": 6001018020,
        "city": "屏東縣",
        "district": "南州鄉"
    },
    {
        "area_name": "屏東縣林邊鄉",
        "area_code": 6001018021,
        "city": "屏東縣",
        "district": "林邊鄉"
    },
    {
        "area_name": "屏東縣東港鎮",
        "area_code": 6001018022,
        "city": "屏東縣",
        "district": "東港鎮"
    },
    {
        "area_name": "屏東縣琉球鄉",
        "area_code": 6001018023,
        "city": "屏東縣",
        "district": "琉球鄉"
    },
    {
        "area_name": "屏東縣佳冬鄉",
        "area_code": 6001018024,
        "city": "屏東縣",
        "district": "佳冬鄉"
    },
    {
        "area_name": "屏東縣新園鄉",
        "area_code": 6001018025,
        "city": "屏東縣",
        "district": "新園鄉"
    },
    {
        "area_name": "屏東縣枋寮鄉",
        "area_code": 6001018026,
        "city": "屏東縣",
        "district": "枋寮鄉"
    },
    {
        "area_name": "屏東縣枋山鄉",
        "area_code": 6001018027,
        "city": "屏東縣",
        "district": "枋山鄉"
    },
    {
        "area_name": "屏東縣春日鄉",
        "area_code": 6001018028,
        "city": "屏東縣",
        "district": "春日鄉"
    },
    {
        "area_name": "屏東縣獅子鄉",
        "area_code": 6001018029,
        "city": "屏東縣",
        "district": "獅子鄉"
    },
    {
        "area_name": "屏東縣車城鄉",
        "area_code": 6001018030,
        "city": "屏東縣",
        "district": "車城鄉"
    },
    {
        "area_name": "屏東縣牡丹鄉",
        "area_code": 6001018031,
        "city": "屏東縣",
        "district": "牡丹鄉"
    },
    {
        "area_name": "屏東縣恆春鎮",
        "area_code": 6001018032,
        "city": "屏東縣",
        "district": "恆春鎮"
    },
    {
        "area_name": "屏東縣滿州鄉",
        "area_code": 6001018033,
        "city": "屏東縣",
        "district": "滿州鄉"
    },
    {
        "area_name": "台東縣台東市",
        "area_code": 6001019001,
        "city": "台東縣",
        "district": "台東市"
    },
    {
        "area_name": "台東縣綠島鄉",
        "area_code": 6001019002,
        "city": "台東縣",
        "district": "綠島鄉"
    },
    {
        "area_name": "台東縣蘭嶼鄉",
        "area_code": 6001019003,
        "city": "台東縣",
        "district": "蘭嶼鄉"
    },
    {
        "area_name": "台東縣延平鄉",
        "area_code": 6001019004,
        "city": "台東縣",
        "district": "延平鄉"
    },
    {
        "area_name": "台東縣卑南鄉",
        "area_code": 6001019005,
        "city": "台東縣",
        "district": "卑南鄉"
    },
    {
        "area_name": "台東縣鹿野鄉",
        "area_code": 6001019006,
        "city": "台東縣",
        "district": "鹿野鄉"
    },
    {
        "area_name": "台東縣關山鎮",
        "area_code": 6001019007,
        "city": "台東縣",
        "district": "關山鎮"
    },
    {
        "area_name": "台東縣海端鄉",
        "area_code": 6001019008,
        "city": "台東縣",
        "district": "海端鄉"
    },
    {
        "area_name": "台東縣池上鄉",
        "area_code": 6001019009,
        "city": "台東縣",
        "district": "池上鄉"
    },
    {
        "area_name": "台東縣東河鄉",
        "area_code": 6001019010,
        "city": "台東縣",
        "district": "東河鄉"
    },
    {
        "area_name": "台東縣成功鎮",
        "area_code": 6001019011,
        "city": "台東縣",
        "district": "成功鎮"
    },
    {
        "area_name": "台東縣長濱鄉",
        "area_code": 6001019012,
        "city": "台東縣",
        "district": "長濱鄉"
    },
    {
        "area_name": "台東縣太麻里鄉",
        "area_code": 6001019013,
        "city": "台東縣",
        "district": "太麻里鄉"
    },
    {
        "area_name": "台東縣金峰鄉",
        "area_code": 6001019014,
        "city": "台東縣",
        "district": "金峰鄉"
    },
    {
        "area_name": "台東縣大武鄉",
        "area_code": 6001019015,
        "city": "台東縣",
        "district": "大武鄉"
    },
    {
        "area_name": "台東縣達仁鄉",
        "area_code": 6001019016,
        "city": "台東縣",
        "district": "達仁鄉"
    },
    {
        "area_name": "花蓮縣花蓮市",
        "area_code": 6001020001,
        "city": "花蓮縣",
        "district": "花蓮市"
    },
    {
        "area_name": "花蓮縣新城鄉",
        "area_code": 6001020002,
        "city": "花蓮縣",
        "district": "新城鄉"
    },
    {
        "area_name": "花蓮縣秀林鄉",
        "area_code": 6001020003,
        "city": "花蓮縣",
        "district": "秀林鄉"
    },
    {
        "area_name": "花蓮縣吉安鄉",
        "area_code": 6001020004,
        "city": "花蓮縣",
        "district": "吉安鄉"
    },
    {
        "area_name": "花蓮縣壽豐鄉",
        "area_code": 6001020005,
        "city": "花蓮縣",
        "district": "壽豐鄉"
    },
    {
        "area_name": "花蓮縣鳳林鎮",
        "area_code": 6001020006,
        "city": "花蓮縣",
        "district": "鳳林鎮"
    },
    {
        "area_name": "花蓮縣光復鄉",
        "area_code": 6001020007,
        "city": "花蓮縣",
        "district": "光復鄉"
    },
    {
        "area_name": "花蓮縣豐濱鄉",
        "area_code": 6001020008,
        "city": "花蓮縣",
        "district": "豐濱鄉"
    },
    {
        "area_name": "花蓮縣瑞穗鄉",
        "area_code": 6001020009,
        "city": "花蓮縣",
        "district": "瑞穗鄉"
    },
    {
        "area_name": "花蓮縣萬榮鄉",
        "area_code": 6001020010,
        "city": "花蓮縣",
        "district": "萬榮鄉"
    },
    {
        "area_name": "花蓮縣玉里鎮",
        "area_code": 6001020011,
        "city": "花蓮縣",
        "district": "玉里鎮"
    },
    {
        "area_name": "花蓮縣卓溪鄉",
        "area_code": 6001020012,
        "city": "花蓮縣",
        "district": "卓溪鄉"
    },
    {
        "area_name": "花蓮縣富里鄉",
        "area_code": 6001020013,
        "city": "花蓮縣",
        "district": "富里鄉"
    },
    {
        "area_name": "澎湖縣馬公市",
        "area_code": 6001021001,
        "city": "澎湖縣",
        "district": "馬公市"
    },
    {
        "area_name": "澎湖縣西嶼鄉",
        "area_code": 6001021002,
        "city": "澎湖縣",
        "district": "西嶼鄉"
    },
    {
        "area_name": "澎湖縣望安鄉",
        "area_code": 6001021003,
        "city": "澎湖縣",
        "district": "望安鄉"
    },
    {
        "area_name": "澎湖縣七美鄉",
        "area_code": 6001021004,
        "city": "澎湖縣",
        "district": "七美鄉"
    },
    {
        "area_name": "澎湖縣白沙鄉",
        "area_code": 6001021005,
        "city": "澎湖縣",
        "district": "白沙鄉"
    },
    {
        "area_name": "澎湖縣湖西鄉",
        "area_code": 6001021006,
        "city": "澎湖縣",
        "district": "湖西鄉"
    },
    {
        "area_name": "金門縣金沙鎮",
        "area_code": 6001022001,
        "city": "金門縣",
        "district": "金沙鎮"
    },
    {
        "area_name": "金門縣金湖鎮",
        "area_code": 6001022002,
        "city": "金門縣",
        "district": "金湖鎮"
    },
    {
        "area_name": "金門縣金寧鄉",
        "area_code": 6001022003,
        "city": "金門縣",
        "district": "金寧鄉"
    },
    {
        "area_name": "金門縣金城鎮",
        "area_code": 6001022004,
        "city": "金門縣",
        "district": "金城鎮"
    },
    {
        "area_name": "金門縣烈嶼鄉",
        "area_code": 6001022005,
        "city": "金門縣",
        "district": "烈嶼鄉"
    },
    {
        "area_name": "金門縣烏坵鄉",
        "area_code": 6001022006,
        "city": "金門縣",
        "district": "烏坵鄉"
    },
    {
        "area_name": "連江縣南竿鄉",
        "area_code": 6001023001,
        "city": "連江縣",
        "district": "南竿鄉"
    },
    {
        "area_name": "連江縣北竿鄉",
        "area_code": 6001023002,
        "city": "連江縣",
        "district": "北竿鄉"
    },
    {
        "area_name": "連江縣莒光鄉",
        "area_code": 6001023003,
        "city": "連江縣",
        "district": "莒光鄉"
    },
    {
        "area_name": "連江縣東引鄉",
        "area_code": 6001023004,
        "city": "連江縣",
        "district": "東引鄉"
    }
]